TEN-KOH                 
1 43677U 18084G   23118.61701216  .00002669  00000+0  26367-3 0  9996
2 43677  98.0054 257.6287 0014118 315.7589  44.2500 14.92762031244667
DIWATA-2B               
1 43678U 18084H   23118.80614712  .00002214  00000+0  21728-3 0  9994
2 43678  98.0140 261.8074 0008775 331.6530  28.4213 14.93255001244895
STARS-AO                
1 43679U 18084J   23118.39329805  .00004718  00000+0  42189-3 0  9990
2 43679  98.0157 264.3863 0007654 332.4330  27.6483 14.96363752244986
AUTCUBE 2               
1 43681U 18084K   23118.38341266  .00003440  00000+0  31859-3 0  9990
2 43681  98.0123 262.4626 0008078 329.0615  31.0128 14.95168513244866
METOP-C                 
1 43689U 18087A   23118.78006799  .00000173  00000+0  98842-4 0  9990
2 43689  98.6869 179.0817 0002736 181.9706 178.1461 14.21495639232101
ES'HAIL 2               
1 43700U 18090A   23118.84732661  .00000145  00000+0  00000+0 0  9992
2 43700   0.0118 178.0080 0001200 238.9953 130.3759  1.00273474 16432
FACSAT-1                
1 43721U 18096C   23118.85380433  .00280643  00000+0  15995-2 0  9993
2 43721  97.3089 207.9632 0005816 287.8717 211.9092 15.78142350246747
REAKTOR HELLO WORLD     
1 43743U 18096AA  23118.20735155  .00053633  00000+0  86797-3 0  9997
2 43743  97.3177 204.0402 0008925   6.3346 353.8018 15.52609674246404
ELYSIUM STAR 2 & LFF    
1 43760U 18099C   23118.14529627  .00013272  00000+0  93600-3 0  9993
2 43760  97.5690 184.9744 0007934 267.7585  92.2733 15.05074445240320
2018-099D               
1 43761U 18099D   23118.48751042  .00001984  00000+0  17564-3 0  9991
2 43761  97.5755 181.2741 0012600 296.4011  63.5843 14.97327491240133
AISTECHSAT 2            
1 43768U 18099L   23118.81751415  .00003574  00000+0  30709-3 0  9992
2 43768  97.5710 180.0015 0009610 291.9845  68.0356 14.98022809239856
FOX-1CLIFF (AO-95)      
1 43770U 18099N   23118.44776569  .00005427  00000+0  44832-3 0  9992
2 43770  97.5749 181.3282 0010633 297.3188  62.6952 14.99321970240157
RANGE-A                 
1 43772U 18099Q   23118.44050035  .00006869  00000+0  54378-3 0  9994
2 43772  97.5841 183.9265 0007033 273.0947  86.9472 15.00890078240200
RANGE-B                 
1 43773U 18099R   23118.84910051  .00004420  00000+0  37751-3 0  9999
2 43773  97.5678 179.9539 0010499 284.4817  75.5241 14.98125995240179
2018-099T               
1 43775U 18099T   23118.13511030  .00003102  00000+0  26861-3 0  9993
2 43775  97.5776 180.7518 0011898 294.7532  65.2452 14.97804397240077
MOVE-II                 
1 43780U 18099Y   23118.44781353  .00009677  00000+0  72667-3 0  9998
2 43780  97.5764 183.5530 0007535 327.4305  32.6454 15.02793920240267
SNUSAT-2                
1 43782U 18099AA  23118.74334583  .00004232  00000+0  35110-3 0  9996
2 43782  97.5789 182.1400 0010051 287.1564  72.8559 14.99278237240225
SNUGLITE                
1 43784U 18099AC  23118.64617704  .00005700  00000+0  46495-3 0  9995
2 43784  97.5708 181.6776 0010506 285.3725  74.6337 14.99792112240241
ITASAT 1                
1 43786U 18099AE  23118.23992809  .00004348  00000+0  36240-3 0  9998
2 43786  97.5775 182.1633 0012864 288.4112  71.5713 14.99065433240162
KAZSCISAT-1             
1 43787U 18099AF  23118.12783551  .00011153  00000+0  84481-3 0  9991
2 43787  97.5579 181.7493 0007890 295.0784  64.9622 15.02421709240258
EAGLET-I                
1 43790U 18099AJ  23118.60268031  .00004073  00000+0  34265-3 0  9997
2 43790  97.5808 183.0182 0010445 298.0983  61.9184 14.98760547239956
ESEO                    
1 43792U 18099AL  23118.44799369  .00002371  00000+0  20845-3 0  9992
2 43792  97.5727 181.4811 0011067 293.9982  66.0081 14.97424709239940
CSIM-FD                 
1 43793U 18099AM  23118.42474935  .00008657  00000+0  64207-3 0  9993
2 43793  97.5795 184.7880 0014325 297.1892  62.7873 15.03236760240102
ASTROCAST 0.1           
1 43798U 18099AS  23118.44962807  .00005860  00000+0  45288-3 0  9991
2 43798  97.5918 184.2093 0012202 267.2894  92.6934 15.01833149240301
JY1SAT (JO-97)          
1 43803U 18099AX  23118.43589733  .00005598  00000+0  45117-3 0  9999
2 43803  97.5714 182.3045 0011872 274.2126  85.7741 15.00249093240235
SUOMI-100               
1 43804U 18099AY  23118.42167012  .00004672  00000+0  37993-3 0  9996
2 43804  97.5734 182.1268 0014709 286.3903  73.5704 14.99963423240233
AL-FARABI 2             
1 43805U 18099AZ  23118.41769355  .00008401  00000+0  65350-3 0  9996
2 43805  97.5713 183.0980 0009328 260.6832  99.3334 15.01479947240286
CENTAURI-1              
1 43809U 18099BD  23118.43152575  .00003773  00000+0  31583-3 0  9990
2 43809  97.5748 182.2467 0013593 289.9965  69.9794 14.98966128239917
CHOMPTT                 
1 43855U 18104G   23118.57014704  .00025782  00000+0  68211-3 0  9996
2 43855  85.0344 199.8419 0014714 143.4838 216.7419 15.38144632242948
UWE-4                   
1 43880U 18111E   23118.45605107  .00006504  00000+0  50449-3 0  9997
2 43880  97.6411  24.4275 0015814 351.3724   8.7227 15.01618365236903
ZACUBE-2                
1 43907U 18111AH  23118.87479258  .00029770  00000+0  79006-3 0  9999
2 43907  97.1458 359.7156 0017563  36.2888  25.3943 15.38090334241562
MICRODRAGON             
1 43935U 19003D   23118.86868027  .00016275  00000+0  51331-3 0  9993
2 43935  97.1086 140.3108 0016497 126.6598 233.6164 15.32809494237875
M6P                     
1 44109U 19018AF  23118.25499274  .00121735  00000+0  10035-2 0  9993
2 44109  97.3681 214.4532 0021572  59.3722 300.9663 15.69672689228176
FORMOSAT 7-4            
1 44350U 19036M   23118.37940359  .00008471  00000+0  43933-3 0  9994
2 44350  24.0010  12.4518 0004952 256.0513 103.9441 15.13586359211156
METEOR-M2 2             
1 44387U 19038A   23118.69777335  .00000117  00000+0  70525-4 0  9990
2 44387  98.7706  82.7126 0002408  80.6608 279.4846 14.23776416198260
VDNH-80                 
1 44392U 19038G   23118.81714225  .00026841  00000+0  99794-3 0  9999
2 44392  97.6713  98.5836 0018487 115.3038 329.7418 15.27339422210774
D-STAR ONE (LIGHTSAT)   
1 44393U 19038H   23118.51087195  .00023228  00000+0  85099-3 0  9995
2 44393  97.6722  98.2926 0018466 114.3549 245.9620 15.27854500210925
AMGU-1 (AMURSAT)        
1 44394U 19038J   23118.58957599  .00027465  00000+0  96303-3 0  9994
2 44394  97.6728  98.5557 0018164 113.4382 246.8765 15.29262393210953
DOT-1                   
1 44399U 19038P   23118.45132525  .00012506  00000+0  55161-3 0  9996
2 44399  97.6801  95.6062 0022047 125.7874 234.5415 15.21707701210715
SOKRAT                  
1 44404U 19038U   23118.50982238  .00026007  00000+0  92532-3 0  9997
2 44404  97.6710  98.0039 0018356 115.6706 244.6431 15.28793559210917
LUCKY-7                 
1 44406U 19038W   23118.46025020  .00013618  00000+0  58355-3 0  9990
2 44406  97.6781  96.2278 0021856 117.5394 242.8066 15.22672121210756
D-STAR ONE (EXOCONNECT) 
1 44410U 19038AA  23118.45538984  .00059005  00000+0  14040-2 0  9994
2 44410  97.6608 101.2399 0016052 105.7896 254.5122 15.41295238211157
NARSSCUBE-2             
1 44415U 19022E   23118.34510002  .00028033  00000+0  57152-3 0  9990
2 44415  51.6376  24.3214 0011291 119.6425 240.5688 15.45937133208594
DUCHIFAT-3              
1 44854U 19089C   23118.81731274  .00011598  00000+0  79434-3 0  9993
2 44854  36.9628  26.1704 0011403 277.9992 129.2289 15.05482658185398
OPS-SAT                 
1 44878U 19092F   23118.79255269  .00026585  00000+0  85880-3 0  9999
2 44878  97.4785 306.9886 0008286 311.0924  48.9601 15.32050294186225
FLORIPASAT-1            
1 44885U 19093G   23118.70888632  .00005897  00000+0  68946-3 0  9992
2 44885  97.8680 200.4324 0012562 239.1876 120.8060 14.85419668181601
BY70-2                  
1 45857U 20042B   23118.70217721  .00027077  00000+0  28981-2 0  9991
2 45857  97.9263 198.5009 0010798 161.8097 198.3420 14.88625466152179
SALSAT                  
1 46495U 20068K   23118.40523350  .00005726  00000+0  38303-3 0  9990
2 46495  97.7657  65.9107 0014008 291.7893  68.1843 15.07273418141577
NETSAT-4                
1 46504U 20068U   23118.58874523  .00008700  00000+0  58440-3 0  9990
2 46504  97.7588  63.9656 0010970 348.0273  12.0705 15.06992870141439
NETSAT-3                
1 46505U 20068V   23118.41768545  .00006636  00000+0  44867-3 0  9993
2 46505  97.7574  63.6404 0010380 359.1885   0.9312 15.06848583141419
NETSAT-1                
1 46506U 20068W   23118.58483453  .00007718  00000+0  52438-3 0  9999
2 46506  97.7569  63.7022 0009287   8.1313 352.0106 15.06622707141434
NETSAT-2                
1 46507U 20068X   23118.58442263  .00008658  00000+0  58306-3 0  9998
2 46507  97.7577  63.7202 0008391  16.2705 343.8820 15.06919155141385
UVSQ-SAT                
1 47438U 21006AB  23118.11901230  .00017122  00000+0  73189-3 0  9990
2 47438  97.3890 175.9895 0008762 252.1662 107.8620 15.22880801125024
SOMP2B                  
1 47445U 21006AJ  23118.41293834  .00013964  00000+0  60966-3 0  9994
2 47445  97.3859 175.6052 0008465 256.5754 103.4539 15.22210342125049
DIY-1 (ARDUIQUBE)       
1 47963U 21022AH  23118.24962609  .00122179  00000+0  25582-2 0  9994
2 47963  97.5013  24.6629 0014089 111.7011 248.5739 15.44881794114846
CAS-5A                  
1 54684U 22167C   23118.77972872  .00016988  00000+0  96505-3 0  9998
2 54684  97.5538 256.7591 0014451 143.5547 352.7651 15.12891523 21206
